{
    "links": {
        "self": "http://www.neowsapp.com/rest/v1/neo/54096431?api_key=iIulBulltgU6a56xZRHN4H3l9WmuAYTsLGpBGhQ2"
    },
    "id": "54096431",
    "neo_reference_id": "54096431",
    "name": "(2020 WL5)",
    "designation": "2020 WL5",
    "nasa_jpl_url": "http://ssd.jpl.nasa.gov/sbdb.cgi?sstr=54096431",
    "absolute_magnitude_h": 21.323,
    "estimated_diameter": {
        "kilometers": {
            "estimated_diameter_min": 0.1445289929,
            "estimated_diameter_max": 0.323176653
        },
        "meters": {
            "estimated_diameter_min": 144.5289929491,
            "estimated_diameter_max": 323.1766529539
        },
        "miles": {
            "estimated_diameter_min": 0.0898061249,
            "estimated_diameter_max": 0.2008126
        },
        "feet": {
            "estimated_diameter_min": 474.1765012272,
            "estimated_diameter_max": 1060.2908900771
        }
    },
    "is_potentially_hazardous_asteroid": true,
    "close_approach_data": [
        {
            "close_approach_date": "2020-11-11",
            "close_approach_date_full": "2020-Nov-11 03:35",
            "epoch_date_close_approach": 1605065700000,
            "relative_velocity": {
                "kilometers_per_second": "17.844246683",
                "kilometers_per_hour": "64239.2880589318",
                "miles_per_hour": "39915.7954052846"
            },
            "miss_distance": {
                "astronomical": "0.1547923345",
                "lunar": "60.2142181205",
                "kilometers": "23156603.533527515",
                "miles": "14388846.216069107"
            },
            "orbiting_body": "Earth"
        }
    ],
    "orbital_data": {
        "orbit_id": "7",
        "orbit_determination_date": "2020-12-07 05:26:59",
        "first_observation_date": "2020-11-28",
        "last_observation_date": "2020-12-07",
        "data_arc_in_days": 9,
        "observations_used": 40,
        "orbit_uncertainty": "9",
        "minimum_orbit_intersection": ".0327469",
        "jupiter_tisserand_invariant": "3.219",
        "epoch_osculation": "2459184.5",
        "eccentricity": ".6119760163117378",
        "semi_major_axis": "2.367860660336826",
        "inclination": "16.80398516430809",
        "ascending_node_longitude": "30.07832358102794",
        "orbital_period": "1330.860821195187",
        "perihelion_distance": ".9187867262426143",
        "perihelion_argument": "334.1606661954374",
        "aphelion_distance": "3.816934594431038",
        "perihelion_time": "2459137.367300069133",
        "mean_anomaly": "12.74947139842476",
        "mean_motion": ".2705016138928036",
        "equinox": "J2000",
        "orbit_class": {
            "orbit_class_type": "APO",
            "orbit_class_description": "Near-Earth asteroid orbits which cross the Earth’s orbit similar to that of 1862 Apollo",
            "orbit_class_range": "a (semi-major axis) > 1.0 AU; q (perihelion) < 1.017 AU"
        }
    },
    "is_sentry_object": false
}